NORAD_CAT_ID,OBJECT_NAME,OBJECT_TYPE,EPOCH,MEAN_MOTION,ECCENTRICITY,INCLINATION,RA_OF_ASC_NODE,ARG_OF_PERICENTER,MEAN_ANOMALY,BSTAR,MEAN_MOTION_DOT,MEAN_MOTION_DDOT,TLE_LINE0,TLE_LINE1,TLE_LINE2,SEMIMAJOR_AXIS,PERIOD,APOGEE,PERIGEE,DECAYED
50180.0,STARLINK-3265,PAYLOAD,2022-10-10 04:06:38,15.08839968,0.0001764,53.2164,84.96600000000002,54.0866,306.0289,4.8845e-05,4.89e-06,0.0,0 STARLINK-3265,1 50180U 21125AA  22283.17128230  .00000489  00000-0  48845-4 0  9990,2 50180  53.2164  84.9660 0001764  54.0866 306.0289 15.08839968 48464,6917.88,95.438,540.966,538.525,0.0
50180.0,STARLINK-3265,PAYLOAD,2022-10-10 20:00:29,15.08844957,0.00015,53.2168,81.98899999999998,69.4789,290.6364,6.9864e-05,8.24e-06,0.0,0 STARLINK-3265,1 50180U 21125AA  22283.83367854  .00000824  00000-0  69864-4 0  9997,2 50180  53.2168  81.9890 0001500  69.4789 290.6364 15.08844957 48569,6917.865,95.437,540.768,538.693,0.0
50180.0,STARLINK-3265,PAYLOAD,2022-10-11 03:57:25,15.08842176,0.0001721999999999,53.2169,80.5033,50.0759,310.0385,0.00015905,2.244e-05,0.0,0 STARLINK-3265,1 50180U 21125AA  22284.16488193  .00002244  00000-0  15905-3 0  9998,2 50180  53.2169  80.5033 0001722  50.0759 310.0385 15.08842176 45482,6917.874,95.437,540.93,538.547,0.0
50180.0,STARLINK-3265,PAYLOAD,2022-10-11 19:51:18,15.08829188,0.0001679,53.2174,77.5315,57.0733,303.0420000000001,-0.00010618,-1.977e-05,0.0,0 STARLINK-3265,1 50180U 21125AA  22284.82729648 -.00001977  00000-0 -10618-3 0  9994,2 50180  53.2174  77.5315 0001679  57.0733 303.0420 15.08829188 45588,6917.913000000001,95.438,540.94,538.617,0.0
50180.0,STARLINK-3265,PAYLOAD,2022-10-12 10:09:46,15.08836764,0.0001564,53.2172,74.8558,47.0877,313.0247,-9.5979e-06,-4.41e-06,0.0,0 STARLINK-3265,1 50180U 21125AA  22285.42345081 -.00000441  00000-0 -95979-5 0  9996,2 50180  53.2172  74.8558 0001564  47.0877 313.0247 15.08836764 45672,6917.89,95.438,540.837,538.673,0.0
50180.0,STARLINK-3265,PAYLOAD,2022-10-12 13:20:32,15.08841108,0.0001623,53.2173,74.2615,46.5898,313.5229,3.2466e-05,2.29e-06,0.0,0 STARLINK-3265,1 50180U 21125AA  22285.55592746  .00000229  00000-0  32466-4 0  9995,2 50180  53.2173  74.2615 0001623  46.5898 313.5229 15.08841108 48827,6917.877,95.437,540.865,538.619,0.0
50180.0,STARLINK-3265,PAYLOAD,2022-10-12 18:06:40,15.08865183,0.0001592,53.2174,73.369,40.4116,319.6994,-0.00021722,-3.746e-05,0.0,0 STARLINK-3265,1 50180U 21125AA  22285.75463928 -.00003746  00000-0 -21722-3 0  9997,2 50180  53.2174  73.3690 0001592  40.4116 319.6994 15.08865183 45723,6917.803000000001,95.436,540.77,538.567,0.0
50180.0,STARLINK-3265,PAYLOAD,2022-10-12 19:42:04,15.08840833,0.000182,53.2173,73.0726,45.9339,314.1802,0.00010093,1.319e-05,0.0,0 STARLINK-3265,1 50180U 21125AA  22285.82088620  .00001319  00000-0  10093-3 0  9998,2 50180  53.2173  73.0726 0001820  45.9339 314.1802 15.08840833 48861,6917.878000000002,95.438,541.002,538.484,0.0
50180.0,STARLINK-3265,PAYLOAD,2022-10-12 21:17:28,15.08834251,0.0001732,53.2175,72.7741,43.5579,316.5549,3.0519000000000004e-05,1.98e-06,0.0,0 STARLINK-3265,1 50180U 21125AA  22285.88713184  .00000198  00000-0  30519-4 0  9994,2 50180  53.2175  72.7741 0001732  43.5579 316.5549 15.08834251 45743,6917.898,95.438,540.961,538.565,0.0
50180.0,STARLINK-3265,PAYLOAD,2022-10-13 11:35:56,15.08836456,0.000169,53.2174,70.0985,40.7445,319.3673,0.00012569,1.713e-05,0.0,0 STARLINK-3265,1 50180U 21125AA  22286.48328867  .00001713  00000-0  12569-3 0  9999,2 50180  53.2174  70.0985 0001690  40.7445 319.3673 15.08836456 48962,6917.891,95.438,540.925,538.587,0.0
50180.0,STARLINK-3265,PAYLOAD,2022-10-13 16:22:05,15.08839236,0.0001655,53.2174,69.2064,41.4157,318.6961,0.00014594,2.035e-05,0.0,0 STARLINK-3265,1 50180U 21125AA  22286.68200705  .00002035  00000-0  14594-3 0  9999,2 50180  53.2174  69.2064 0001655  41.4157 318.6961 15.08839236 45866,6917.8830000000025,95.438,540.893,538.6030000000002,0.0
50180.0,STARLINK-3265,PAYLOAD,2022-10-13 19:32:51,15.08835339,0.0001665999999999,53.2174,68.6116,42.25899999999999,317.853,0.00018782,2.702e-05,0.0,0 STARLINK-3265,1 50180U 21125AA  22286.81448930  .00002702  00000-0  18782-3 0  9992,2 50180  53.2174  68.6116 0001666  42.2590 317.8530 15.08835339 49013,6917.895,95.438,540.9119999999998,538.607,0.0
50180.0,STARLINK-3265,PAYLOAD,2022-10-14 11:26:43,15.08840542,0.0001728,53.2174,65.6378,46.6958,313.4178,5.2034e-05,5.400000000000002e-06,0.0,0 STARLINK-3265,1 50180U 21125AA  22287.47689209  .00000540  00000-0  52034-4 0  9998,2 50180  53.2174  65.6378 0001728  46.6958 313.4178 15.08840542 49118,6917.879,95.438,540.939,538.548,0.0
50180.0,STARLINK-3265,PAYLOAD,2022-10-14 19:23:38,15.088452300000002,0.0001781999999999,53.2175,64.1515,42.2185,317.8944,7.6053e-05,9.23e-06,0.0,0 STARLINK-3265,1 50180U 21125AA  22287.80808801  .00000923  00000-0  76053-4 0  9998,2 50180  53.2175  64.1515 0001782  42.2185 317.8944 15.08845230 49163,6917.864000000001,95.437,540.962,538.497,0.0
50180.0,STARLINK-3265,PAYLOAD,2022-10-15 12:52:53,15.08839148,0.0001818,53.2182,60.8815,45.8982,314.216,2.4675e-05,1.05e-06,0.0,0 STARLINK-3265,1 50180U 21125AA  22288.53673199  .00000105  00000-0  24675-4 0  9994,2 50180  53.2182  60.8815 0001818  45.8982 314.2160 15.08839148 49275,6917.8830000000025,95.438,541.006,538.49,0.0
50180.0,STARLINK-3265,PAYLOAD,2022-10-15 17:39:03,15.08837477,0.0001839,53.2185,59.9896,46.252,313.8624,3.5142e-06,-2.32e-06,0.0,0 STARLINK-3265,1 50180U 21125AA  22288.73545325 -.00000232  00000-0  35142-5 0  9999,2 50180  53.2185  59.9896 0001839  46.2520 313.8624 15.08837477 49309,6917.888000000001,95.438,541.025,538.481,0.0
50180.0,STARLINK-3265,PAYLOAD,2022-10-16 12:43:40,15.08836929,0.0001921,53.2188,56.4216,47.6555,312.46,9.6677e-06,-1.34e-06,0.0,0 STARLINK-3265,1 50180U 21125AA  22289.53033534 -.00000134  00000-0  96677-5 0  9993,2 50180  53.2188  56.4216 0001921  47.6555 312.4600 15.08836929 49428,6917.89,95.438,541.0840000000002,538.4259999999998,0.0
50180.0,STARLINK-3265,PAYLOAD,2022-10-16 17:29:50,15.08831968,0.0002008999999999,53.2187,55.5297,44.4845,315.6308,-3.4235e-05,-8.33e-06,0.0,0 STARLINK-3265,1 50180U 21125AA  22289.72906042 -.00000833  00000-0 -34235-4 0  9995,2 50180  53.2187  55.5297 0002009  44.4845 315.6308 15.08831968 46325,6917.905,95.438,541.16,538.38,0.0
50180.0,STARLINK-3265,PAYLOAD,2022-10-17 01:26:46,15.08838509,0.0001916999999999,53.2184,54.0421,43.5136,316.6007,2.546300000000001e-05,1.17e-06,0.0,0 STARLINK-3265,1 50180U 21125AA  22290.06025499  .00000117  00000-0  25463-4 0  9998,2 50180  53.2184  54.0421 0001917  43.5136 316.6007 15.08838509 46375,6917.885,95.438,541.076,538.424,0.0
50180.0,STARLINK-3265,PAYLOAD,2022-10-17 12:34:28,15.08832702,0.0002011,53.2186,51.9606,44.3116,315.8037,3.7969e-05,3.16e-06,0.0,0 STARLINK-3265,1 50180U 21125AA  22290.52393976  .00000316  00000-0  37969-4 0  9992,2 50180  53.2186  51.9606 0002011  44.3116 315.8037 15.08832702 49579,6917.903,95.438,541.159,538.377,0.0
50180.0,STARLINK-3265,PAYLOAD,2022-10-17 17:20:37,15.088362,0.0002055,53.2187,51.0686,44.9607,315.1552,6.6577e-05,7.71e-06,0.0,0 STARLINK-3265,1 50180U 21125AA  22290.72265764  .00000771  00000-0  66577-4 0  9999,2 50180  53.2187  51.0686 0002055  44.9607 315.1552 15.08836200 49604,6917.892,95.438,541.179,538.335,0.0
50180.0,STARLINK-3265,PAYLOAD,2022-10-18 10:49:52,15.08838961,0.000204,53.2187,47.7976,45.8771,314.2388,-5.7359e-06,-3.8e-06,0.0,0 STARLINK-3265,1 50180U 21125AA  22291.45130020 -.00000380  00000-0 -57359-5 0  9993,2 50180  53.2187  47.7976 0002040  45.8771 314.2388 15.08838961 46581,6917.884,95.438,541.16,538.337,0.0
50180.0,STARLINK-3265,PAYLOAD,2022-10-18 14:00:38,15.08842718,0.0002023,53.2187,47.2026,43.7541,316.3611,1.7998e-06,-2.6e-06,0.0,0 STARLINK-3265,1 50180U 21125AA  22291.58377774 -.00000260  00000-0  17998-5 0  9997,2 50180  53.2187  47.2026 0002023  43.7541 316.3611 15.08842718 49732,6917.871999999999,95.437,541.137,538.3380000000002,0.0
50180.0,STARLINK-3265,PAYLOAD,2022-10-19 13:51:25,15.08840943,0.0001881,53.2186,42.7408,41.37300000000001,318.7405,9.7857e-05,1.27e-05,0.0,0 STARLINK-3265,1 50180U 21125AA  22292.57737806  .00001270  00000-0  97857-4 0  9995,2 50180  53.2186  42.7408 0001881  41.3730 318.7405 15.08840943 46754,6917.878000000002,95.437,541.044,538.441,0.0
50180.0,STARLINK-3265,PAYLOAD,2022-10-19 17:02:11,15.08844829,0.0001913,53.2186,42.1465,43.4894,316.6249,8.9752e-05,1.141e-05,0.0,0 STARLINK-3265,1 50180U 21125AA  22292.70985575  .00001141  00000-0  89752-4 0  9990,2 50180  53.2186  42.1465 0001913  43.4894 316.6249 15.08844829 49901,6917.866,95.437,541.054,538.4069999999998,0.0
50180.0,STARLINK-3265,PAYLOAD,2022-10-20 13:42:12,15.08843205,0.0002224,53.2177,38.2826,44.3592,315.7578,8.6003e-05,1.081e-05,0.0,0 STARLINK-3265,1 50180U 21125AA  22293.57097642  .00001081  00000-0  86003-4 0  9994,2 50180  53.2177  38.2826 0002224  44.3592 315.7578 15.08843205 50037,6917.871,95.437,541.274,538.197,0.0
50180.0,STARLINK-3265,PAYLOAD,2022-10-20 16:52:58,15.08839743,0.0002255999999999,53.2187,37.69,45.5958,314.5218,6.074100000000003e-05,6.79e-06,0.0,0 STARLINK-3265,1 50180U 21125AA  22293.70345961  .00000679  00000-0  60741-4 0  9992,2 50180  53.2187  37.6900 0002256  45.5958 314.5218 15.08839743 50050,6917.880999999999,95.438,541.307,538.186,0.0
50180.0,STARLINK-3265,PAYLOAD,2022-10-21 10:22:13,15.08839428,0.0002174,53.2186,34.4174,39.5403,320.5747,-4.387e-05,-9.86e-06,0.0,0 STARLINK-3265,1 50180U 21125AA  22294.43210422 -.00000986  00000-0 -43870-4 0  9993,2 50180  53.2186  34.4174 0002174  39.5403 320.5747 15.08839428 50160,6917.882,95.438,541.251,538.243,0.0
50180.0,STARLINK-3265,PAYLOAD,2022-10-21 16:43:45,15.08844747,0.0002174,53.2181,33.2273,39.3131,320.8019,-3.2003000000000005e-05,-7.98e-06,0.0,0 STARLINK-3265,1 50180U 21125AA  22294.69706004 -.00000798  00000-0 -32003-4 0  9994,2 50180  53.2181  33.2273 0002174  39.3131 320.8019 15.08844747 50208,6917.866,95.437,541.235,538.227,0.0
